 Automated mail xmit by MAIL_REQUEST, PID= 432 Mon Jul 31 11:18:16 2017
++++++++++++++++++++++++++++++++ (part 1 of 1)  +++++++++++++++++++++++++++++++

*******************************************************************************
 Revised: Jun 17, 2016             Iapetus / (Saturn)                       608
                          http://ssd.jpl.nasa.gov/?sat_phys_par
                            http://ssd.jpl.nasa.gov/?sat_elem

 SATELLITE PHYSICAL PROPERTIES:
  Radius (km)            = 734.5    +- 4.0    Density (g/cm^3)=  1.088 +- 0.018 
  Mass (10^19 kg)        = 180.59             Geometric Albedo=  0.6
  GM (km^3/s^2)          = 120.51   +- 0.03   V(1,0)          =   +1.5 (.7-2.5)

 SATELLITE ORBITAL DATA (mean values with respect to local Laplace plane):
  Semi-major axis, a (km)= 3560.84 (10^3)     Orbital period    = 79.33 d
  Eccentricity, e        =     0.0283         Rotational period = Synchronous
  Inclination, i  (deg)  =     7.489
*******************************************************************************
 
 
*******************************************************************************
Ephemeris / MAIL_REQUEST Mon Jul 31 11:18:15 2017 Pasadena, USA  / Horizons    
*******************************************************************************
Target body name: Iapetus (608)                   {source: sat389}
Center body name: Solar System Barycenter (0)     {source: DE431mx}
Center-site name: BODY CENTER
*******************************************************************************
Start time      : A.D. 2017-Jul-10 00:00:00.0000 TDB
Stop  time      : A.D. 2020-Aug-13 00:00:00.0000 TDB
Step-size       : 1440 minutes
*******************************************************************************
Center geodetic : 0.00000000,0.00000000,0.0000000 {E-lon(deg),Lat(deg),Alt(km)}
Center cylindric: 0.00000000,0.00000000,0.0000000 {E-lon(deg),Dxy(km),Dz(km)}
Center radii    : (undefined)                                                  
Output units    : KM-S                                                         
Output type     : GEOMETRIC cartesian states
Output format   : 3 (position, velocity, LT, range, range-rate)
Reference frame : ICRF/J2000.0                                                 
Coordinate systm: Ecliptic and Mean Equinox of Reference Epoch                 
*******************************************************************************
            JDTDB,            Calendar Date (TDB),                      X,                      Y,                      Z,                     VX,                     VY,                     VZ,                     LT,                     RG,                     RR,
**************************************************************************************************************************************************************************************************************************************************************************
$$SOE
2458256.500000000, A.D. 2018-May-18 00:00:00.0000,  1.158180428134345E+08, -1.496907809440570E+09,  2.058987048472303E+07,  5.947612330534401E+00,  1.596096648450427E+00,  5.718583256568499E-02,  5.008540978504448E+03,  1.501522810939574E+09, -1.131645324923481E+00,
2458257.500000000, A.D. 2018-May-19 00:00:00.0000,  1.163298661374724E+08, -1.496780542564413E+09,  2.059773018993175E+07,  5.903628400042898E+00,  1.349337038655737E+00,  1.241787005319617E-01,  5.008250113997506E+03,  1.501435611954092E+09, -8.860422074435282E-01,
2458258.500000000, A.D. 2018-May-20 00:00:00.0000,  1.168387907553596E+08, -1.496674715813673E+09,  2.061122383293396E+07,  5.880505771935344E+00,  1.100083004463237E+00,  1.875362185480609E-01,  5.008030649131648E+03,  1.501369818042512E+09, -6.364387189574484E-01,
2458259.500000000, A.D. 2018-May-21 00:00:00.0000,  1.173466151284479E+08, -1.496590471103842E+09,  2.063002102201933E+07,  5.878128250133018E+00,  8.500333030974414E-01,  2.468871172315554E-01,  5.007883494478487E+03,  1.501325702187335E+09, -3.845135008565608E-01,
2458260.500000000, A.D. 2018-May-22 00:00:00.0000,  1.178551214841907E+08, -1.496527805016329E+09,  2.065376087150949E+07,  5.896238011478781E+00,  6.008514280865748E-01,  3.018970215235356E-01,  5.007809079985963E+03,  1.501303393283710E+09, -1.319211784030109E-01,
2458261.500000000, A.D. 2018-May-23 00:00:00.0000,  1.183660639772441E+08, -1.496486572373386E+09,  2.068205522791684E+07,  5.934444941681599E+00,  3.541537642677092E-01,  3.522693159388304E-01,  5.007807363753707E+03,  1.501302878770224E+09,  1.197201396489539E-01,
2458262.500000000, A.D. 2018-May-24 00:00:00.0000,  1.188811577303369E+08, -1.496466490712488E+09,  2.071449197458601E+07,  5.992237039771735E+00,  1.115001545543230E-01,  3.977458555749187E-01,  5.007877844021285E+03,  1.501324008222882E+09,  3.688390593790376E-01,
2458263.500000000, A.D. 2018-May-25 00:00:00.0000,  1.194020687193871E+08, -1.496467145575982E+09,  2.075063834702009E+07,  6.068990372214046E+00, -1.256152317155850E-01,  4.381068290082138E-01,  5.008019574081810E+03,  1.501366497826099E+09,  6.139207651345620E-01,
2458264.500000000, A.D. 2018-May-26 00:00:00.0000,  1.199304045274713E+08, -1.496487996513421E+09,  2.079004423220772E+07,  6.163978862583239E+00, -3.557710531121389E-01,  4.731703438874589E-01,  5.008231179787465E+03,  1.501429935620724E+09,  8.535148999987382E-01,
2458265.500000000, A.D. 2018-May-27 00:00:00.0000,  1.204677059579627E+08, -1.496528383628280E+09,  2.083224541040540E+07,  6.276384451219133E+00, -5.776246005799942E-01,  5.027915852634552E-01,  5.008510879083459E+03,  1.501513787360171E+09,  1.086242122998080E+00,
2458266.500000000, A.D. 2018-May-28 00:00:00.0000,  1.210154395204963E+08, -1.496587534586351E+09,  2.087676671272272E+07,  6.405307068459415E+00, -7.899165283104342E-01,  5.268617100059402E-01,  5.008856503296748E+03,  1.501617402892617E+09,  1.310799571851324E+00,
2458267.500000000, A.D. 2018-May-29 00:00:00.0000,  1.215749907647523E+08, -1.496664571973989E+09,  2.092312507240069E+07,  6.549774305474554E+00, -9.914742697595713E-01,  5.453064972468576E-01,  5.009265519797751E+03,  1.501740022954815E+09,  1.525964977485222E+00,
2458268.500000000, A.D. 2018-May-30 00:00:00.0000,  1.221476584412310E+08, -1.496758520910683E+09,  2.097083245092821E+07,  6.708750889598560E+00, -1.181214587057789E+00,  5.580848161655177E-01,  5.009735055707624E+03,  1.501880786279356E+09,  1.730599883393468E+00,
2458269.500000000, A.D. 2018-May-31 00:00:00.0000,  1.227346494641603E+08, -1.496868316852128E+09,  2.101939862845862E+07,  6.881147657785879E+00, -1.358145368602780E+00,  5.651870478975544E-01,  5.010261922427648E+03,  1.502038736948390E+09,  1.923652059307119E+00,
2458270.500000000, A.D. 2018-Jun-01 00:00:00.0000,  1.233370746171083E+08, -1.496992813492966E+09,  2.106833385633737E+07,  7.065829907320563E+00, -1.521366148126865E+00,  5.666334791742305E-01,  5.010842640667954E+03,  1.502212831897057E+09,  2.104156572987132E+00,
2458271.500000000, A.D. 2018-Jun-02 00:00:00.0000,  1.239559449726654E+08, -1.497130790708401E+09,  2.111715137364662E+07,  7.261625582541580E+00, -1.670068678699066E+00,  5.624726188047804E-01,  5.011473465760947E+03,  1.502401948502253E+09,  2.271236885333024E+00,
2458272.500000000, A.D. 2018-Jun-03 00:00:00.0000,  1.245921689548744E+08, -1.497280962513418E+09,  2.116536979925752E+07,  7.467331486278253E+00, -1.803536508365369E+00,  5.527804630982072E-01,  5.012150413164835E+03,  1.502604892228401E+09,  2.424104784372971E+00,
2458273.500000000, A.D. 2018-Jun-04 00:00:00.0000,  1.252465499223806E+08, -1.497441984968002E+09,  2.121251545562571E+07,  7.681719548180379E+00, -1.921144532196245E+00,  5.376593196497709E-01,  5.012869283883277E+03,  1.502820404248067E+09,  2.562060275683906E+00,
2458274.500000000, A.D. 2018-Jun-05 00:00:00.0000,  1.259197841140088E+08, -1.497612464020447E+09,  2.125812469527280E+07,  7.903538129294941E+00, -2.022357121527958E+00,  5.172392737576794E-01,  5.013625689728841E+03,  1.503047169015754E+09,  2.684489660094613E+00,
2458275.500000000, A.D. 2018-Jun-06 00:00:00.0000,  1.266124586361271E+08, -1.497790962981202E+09,  2.130174628229421E+07,  8.131513318918383E+00, -2.106721646360811E+00,  4.916768634625613E-01,  5.014415077314735E+03,  1.503283821460444E+09,  2.790858953633409E+00,
2458276.500000000, A.D. 2018-Jun-07 00:00:00.0000,  1.273250498212581E+08, -1.497976009410993E+09,  2.134294344450271E+07,  8.364356736490794E+00, -2.173862734620214E+00,  4.611492035007005E-01,  5.015232750122780E+03,  1.503528953601408E+09,  2.880708504751644E+00,
2458277.500000000, A.D. 2018-Jun-08 00:00:00.0000,  1.280579225369022E+08, -1.498166101809385E+09,  2.138129538350391E+07,  8.600778863605914E+00, -2.223484089804790E+00,  4.258483725130077E-01,  5.016073890081348E+03,  1.503781121017109E+09,  2.953655616827932E+00,
2458278.500000000, A.D. 2018-Jun-09 00:00:00.0000,  1.288113305644649E+08, -1.498359716758757E+09,  2.141639853136176E+07,  8.839498016382425E+00, -2.255375488964534E+00,  3.859819355692772E-01,  5.016933580881070E+03,  1.504038849835078E+09,  3.009402066506518E+00,
2458279.500000000, A.D. 2018-Jun-10 00:00:00.0000,  1.295854171744494E+08, -1.498555316388491E+09,  2.144786809013659E+07,  9.079237389641511E+00, -2.269411739299206E+00,  3.417768971854331E-01,  5.017806832359694E+03,  1.504300644042307E+09,  3.047732642891817E+00,
2458280.500000000, A.D. 2018-Jun-11 00:00:00.0000,  1.303802155331391E+08, -1.498751355532256E+09,  2.147533969590682E+07,  9.318725115919763E+00, -2.265548662789528E+00,  2.934792837256553E-01,  5.018688603757519E+03,  1.504564992457055E+09,  3.068510904444221E+00,
2458281.500000000, A.D. 2018-Jun-12 00:00:00.0000,  1.311956491633152E+08, -1.498946288601917E+09,  2.149847103014314E+07,  9.556695401106230E+00, -2.243820237146353E+00,  2.413530385692426E-01,  5.019573825973263E+03,  1.504830375400988E+09,  3.071676164059761E+00,
